{
  "norad_id": 59715,
  "name": "STARLINK-11101 [DTC]",
  "history": [
    {
      "epoch": "2026-03-28T15:56:36.030624Z",
      "apogee_km": 360.3724955823027,
      "perigee_km": 359.13407134820227,
      "latitude_deg": -1.7285259324037468e-05,
      "longitude_deg": 167.4073539043592,
      "height_km": 360.48060741508306,
      "semi_major_axis_km": 6737.890283465253,
      "eccentricity": 9.19e-05,
      "inclination_deg": 53.1579,
      "raan_deg": 232.639,
      "arg_perigee_deg": 72.4802,
      "mean_anomaly_deg": 287.6316,
      "mean_motion_rev_day": 15.69700728
    },
    {
      "epoch": "2026-03-29T02:38:22.936416Z",
      "apogee_km": 360.38785400929373,
      "perigee_km": 359.0483684131841,
      "latitude_deg": 2.8445951730423402e-06,
      "longitude_deg": 4.323444019165377,
      "height_km": 360.55361408523834,
      "semi_major_axis_km": 6737.855111211238,
      "eccentricity": 9.94e-05,
      "inclination_deg": 53.1591,
      "raan_deg": 230.4398,
      "arg_perigee_deg": 83.2939,
      "mean_anomaly_deg": 276.8192,
      "mean_motion_rev_day": 15.69713019
    }
  ]
}